0 CZ-4 DEB
1 26126U 99057N   13281.44134255  .00001018  00000-0  34932-3 0  2391
2 26126 098.3862 240.1662 0108403 307.5514 179.2659 14.34990833709253
0 CZ-4 DEB
1 26126U 99057N   13283.79966372  .00001079  00000-0  36940-3 0  2404
2 26126 098.3863 242.4579 0108288 300.4584 122.3660 14.35001341709592
0 CZ-4 DEB
1 26126U 99057N   13285.82058462  .00001073  00000-0  36750-3 0  2416
2 26126 098.3867 244.4216 0108205 294.3679 122.5236 14.35005252709889
0 CZ-4 DEB
1 26126U 99057N   13287.84296931  .00001356  00000-0  46029-3 0  2420
2 26126 098.3873 246.3867 0108163 288.2632 130.2883 14.35012264710172
0 CZ-4 DEB
1 26126U 99057N   13289.86381483  .00001333  00000-0  45277-3 0  2431
2 26126 098.3879 248.3503 0108146 282.1631 130.1552 14.35019533710460
0 CZ-4 DEB
1 26126U 99057N   13292.17759201  .00001374  00000-0  46618-3 0  2442
2 26126 098.3884 250.5991 0108074 275.1768 203.3977 14.35025045710790
0 CZ-4 DEB
1 26126U 99057N   13294.53774366  .00001596  00000-0  53895-3 0  2455
2 26126 098.3886 252.8934 0108061 268.0553 156.2671 14.35033123711135
